SL-16 R/B               
1 25400U 98043G   26034.49176973  .00000072  00000+0  48852-4 0  9995
2 25400  98.8199 347.6253 0010849 111.2668 248.9671 14.26041088434118
SL-16 R/B               
1 25407U 98045B   26034.59862668 -.00000226  00000+0 -90054-4 0  9992
2 25407  71.0091 253.2672 0005157  72.1018 288.0667 14.16185784422271
ISS (ZARYA)             
1 25544U 98067A   26034.56592394  .00010230  00000+0  19757-3 0  9995
2 25544  51.6309 241.0439 0011068  60.8200 299.3894 15.48366668551043
CZ-4B R/B               
1 25732U 99025C   26034.61038679  .00000084  00000+0  61347-4 0  9995
2 25732  98.6692  79.6887 0038196  83.3005  79.4154 14.18258340383338
OKEAN-O                 
1 25860U 99039A   26034.58424507  .00000786  00000+0  11016-3 0  9993
2 25860  97.9515  94.8097 0001940  90.7850 269.3585 14.80276748429346
SL-16 R/B               
1 25861U 99039B   26034.39377364  .00000670  00000+0  91839-4 0  9995
2 25861  98.0039  93.5283 0015062  14.0690 346.0939 14.81680856431781
DELTA 2 R/B             
1 25876U 99041E   26034.53156492  .00002376  00000+0  41949-3 0  9998
2 25876  51.7645  77.6836 0502513 247.5082 107.1919 14.11692706358202
HELIOS 1B               
1 25977U 99064A   26034.47737423  .00002144  00000+0  24264-3 0  9991
2 25977  98.1734 295.7102 0001813 122.0494 238.0898 14.87550753680170
TERRA                   
1 25994U 99068A   26034.62012701  .00000519  00000+0  11503-3 0  9992
2 25994  97.9664  89.3439 0001052 308.9633 173.2241 14.60976009390103
SL-16 R/B               
1 26070U 00006B   26034.53451790  .00000117  00000+0  83655-4 0  9999
2 26070  71.0026 169.6513 0018478 237.8630 122.0701 14.15819973343721
TITAN 4B R/B            
1 26474U 00047B   26034.57016944  .00004228  00000+0  26902-3 0  9992
2 26474  67.9899 136.4317 0036779  77.6936 282.8327 15.09272006387763
ENVISAT                 
1 27386U 02009A   26034.63290004  .00000147  00000+0  61497-4 0  9998
2 27386  98.3672 349.0538 0001300  91.3709  82.5982 14.39023472254277
