CCSDS_OMM_VERS = 2.0
CREATION_DATE  = 
ORIGINATOR     = 

OBJECT_NAME    = SL-16 R/B
OBJECT_ID      = 1998-043G
CENTER_NAME    = EARTH
REF_FRAME      = TEME
TIME_SYSTEM    = UTC
MEAN_ELEMENT_THEORY = SGP/SGP4

EPOCH          = 2026-02-03T11:48:08.904672
MEAN_MOTION    = 14.26041088
ECCENTRICITY   = .00108497
INCLINATION    = 98.8199
RA_OF_ASC_NODE = 347.6253
ARG_OF_PERICENTER = 111.2668
MEAN_ANOMALY   = 248.9671

EPHEMERIS_TYPE = 0
CLASSIFICATION_TYPE = U
NORAD_CAT_ID   = 25400
ELEMENT_SET_NO = 999
REV_AT_EPOCH   = 43411
BSTAR          = .48851927E-4
MEAN_MOTION_DOT = .72E-6
MEAN_MOTION_DDOT = 0

CCSDS_OMM_VERS = 2.0
CREATION_DATE  = 
ORIGINATOR     = 

OBJECT_NAME    = SL-16 R/B
OBJECT_ID      = 1998-045B
CENTER_NAME    = EARTH
REF_FRAME      = TEME
TIME_SYSTEM    = UTC
MEAN_ELEMENT_THEORY = SGP/SGP4

EPOCH          = 2026-02-03T14:22:01.345152
MEAN_MOTION    = 14.16185784
ECCENTRICITY   = .00051577
INCLINATION    = 71.0091
RA_OF_ASC_NODE = 253.2672
ARG_OF_PERICENTER = 72.1018
MEAN_ANOMALY   = 288.0667

EPHEMERIS_TYPE = 0
CLASSIFICATION_TYPE = U
NORAD_CAT_ID   = 25407
ELEMENT_SET_NO = 999
REV_AT_EPOCH   = 42227
BSTAR          = -.90054102E-4
MEAN_MOTION_DOT = -.226E-5
MEAN_MOTION_DDOT = 0

CCSDS_OMM_VERS = 2.0
CREATION_DATE  = 
ORIGINATOR     = 

OBJECT_NAME    = ISS (ZARYA)
OBJECT_ID      = 1998-067A
CENTER_NAME    = EARTH
REF_FRAME      = TEME
TIME_SYSTEM    = UTC
MEAN_ELEMENT_THEORY = SGP/SGP4

EPOCH          = 2026-02-03T13:34:55.828416
MEAN_MOTION    = 15.48366668
ECCENTRICITY   = .00110683
INCLINATION    = 51.6309
RA_OF_ASC_NODE = 241.0439
ARG_OF_PERICENTER = 60.8200
MEAN_ANOMALY   = 299.3894

EPHEMERIS_TYPE = 0
CLASSIFICATION_TYPE = U
NORAD_CAT_ID   = 25544
ELEMENT_SET_NO = 999
REV_AT_EPOCH   = 55104
BSTAR          = .19757322E-3
MEAN_MOTION_DOT = .1023E-3
MEAN_MOTION_DDOT = 0

CCSDS_OMM_VERS = 2.0
CREATION_DATE  = 
ORIGINATOR     = 

OBJECT_NAME    = CZ-4B R/B
OBJECT_ID      = 1999-025C
CENTER_NAME    = EARTH
REF_FRAME      = TEME
TIME_SYSTEM    = UTC
MEAN_ELEMENT_THEORY = SGP/SGP4

EPOCH          = 2026-02-03T14:38:57.418656
MEAN_MOTION    = 14.18258340
ECCENTRICITY   = .00381968
INCLINATION    = 98.6692
RA_OF_ASC_NODE = 79.6887
ARG_OF_PERICENTER = 83.3005
MEAN_ANOMALY   = 79.4154

EPHEMERIS_TYPE = 0
CLASSIFICATION_TYPE = U
NORAD_CAT_ID   = 25732
ELEMENT_SET_NO = 999
REV_AT_EPOCH   = 38333
BSTAR          = .61346523E-4
MEAN_MOTION_DOT = .84E-6
MEAN_MOTION_DDOT = 0

CCSDS_OMM_VERS = 2.0
CREATION_DATE  = 
ORIGINATOR     = 

OBJECT_NAME    = OKEAN-O
OBJECT_ID      = 1999-039A
CENTER_NAME    = EARTH
REF_FRAME      = TEME
TIME_SYSTEM    = UTC
MEAN_ELEMENT_THEORY = SGP/SGP4

EPOCH          = 2026-02-03T14:01:18.774048
MEAN_MOTION    = 14.80276748
ECCENTRICITY   = .00019406
INCLINATION    = 97.9515
RA_OF_ASC_NODE = 94.8097
ARG_OF_PERICENTER = 90.7850
MEAN_ANOMALY   = 269.3585

EPHEMERIS_TYPE = 0
CLASSIFICATION_TYPE = U
NORAD_CAT_ID   = 25860
ELEMENT_SET_NO = 999
REV_AT_EPOCH   = 42934
BSTAR          = .11015788E-3
MEAN_MOTION_DOT = .786E-5
MEAN_MOTION_DDOT = 0

CCSDS_OMM_VERS = 2.0
CREATION_DATE  = 
ORIGINATOR     = 

OBJECT_NAME    = SL-16 R/B
OBJECT_ID      = 1999-039B
CENTER_NAME    = EARTH
REF_FRAME      = TEME
TIME_SYSTEM    = UTC
MEAN_ELEMENT_THEORY = SGP/SGP4

EPOCH          = 2026-02-03T09:27:02.042496
MEAN_MOTION    = 14.81680856
ECCENTRICITY   = .00150624
INCLINATION    = 98.0039
RA_OF_ASC_NODE = 93.5283
ARG_OF_PERICENTER = 14.0690
MEAN_ANOMALY   = 346.0939

EPHEMERIS_TYPE = 0
CLASSIFICATION_TYPE = U
NORAD_CAT_ID   = 25861
ELEMENT_SET_NO = 999
REV_AT_EPOCH   = 43178
BSTAR          = .91838852E-4
MEAN_MOTION_DOT = .67E-5
MEAN_MOTION_DDOT = 0

CCSDS_OMM_VERS = 2.0
CREATION_DATE  = 
ORIGINATOR     = 

OBJECT_NAME    = DELTA 2 R/B
OBJECT_ID      = 1999-041E
CENTER_NAME    = EARTH
REF_FRAME      = TEME
TIME_SYSTEM    = UTC
MEAN_ELEMENT_THEORY = SGP/SGP4

EPOCH          = 2026-02-03T12:45:27.209088
MEAN_MOTION    = 14.11692706
ECCENTRICITY   = .05025138
INCLINATION    = 51.7645
RA_OF_ASC_NODE = 77.6836
ARG_OF_PERICENTER = 247.5082
MEAN_ANOMALY   = 107.1919

EPHEMERIS_TYPE = 0
CLASSIFICATION_TYPE = U
NORAD_CAT_ID   = 25876
ELEMENT_SET_NO = 999
REV_AT_EPOCH   = 35820
BSTAR          = .41948846E-3
MEAN_MOTION_DOT = .2376E-4
MEAN_MOTION_DDOT = 0

CCSDS_OMM_VERS = 2.0
CREATION_DATE  = 
ORIGINATOR     = 

OBJECT_NAME    = HELIOS 1B
OBJECT_ID      = 1999-064A
CENTER_NAME    = EARTH
REF_FRAME      = TEME
TIME_SYSTEM    = UTC
MEAN_ELEMENT_THEORY = SGP/SGP4

EPOCH          = 2026-02-03T11:27:25.133472
MEAN_MOTION    = 14.87550753
ECCENTRICITY   = .00018139
INCLINATION    = 98.1734
RA_OF_ASC_NODE = 295.7102
ARG_OF_PERICENTER = 122.0494
MEAN_ANOMALY   = 238.0898

EPHEMERIS_TYPE = 0
CLASSIFICATION_TYPE = U
NORAD_CAT_ID   = 25977
ELEMENT_SET_NO = 999
REV_AT_EPOCH   = 68017
BSTAR          = .2426423E-3
MEAN_MOTION_DOT = .2144E-4
MEAN_MOTION_DDOT = 0

CCSDS_OMM_VERS = 2.0
CREATION_DATE  = 
ORIGINATOR     = 

OBJECT_NAME    = TERRA
OBJECT_ID      = 1999-068A
CENTER_NAME    = EARTH
REF_FRAME      = TEME
TIME_SYSTEM    = UTC
MEAN_ELEMENT_THEORY = SGP/SGP4

EPOCH          = 2026-02-03T14:52:58.973664
MEAN_MOTION    = 14.60976009
ECCENTRICITY   = .00010524
INCLINATION    = 97.9664
RA_OF_ASC_NODE = 89.3439
ARG_OF_PERICENTER = 308.9633
MEAN_ANOMALY   = 173.2241

EPHEMERIS_TYPE = 0
CLASSIFICATION_TYPE = U
NORAD_CAT_ID   = 25994
ELEMENT_SET_NO = 999
REV_AT_EPOCH   = 39010
BSTAR          = .11503048E-3
MEAN_MOTION_DOT = .519E-5
MEAN_MOTION_DDOT = 0

CCSDS_OMM_VERS = 2.0
CREATION_DATE  = 
ORIGINATOR     = 

OBJECT_NAME    = SL-16 R/B
OBJECT_ID      = 2000-006B
CENTER_NAME    = EARTH
REF_FRAME      = TEME
TIME_SYSTEM    = UTC
MEAN_ELEMENT_THEORY = SGP/SGP4

EPOCH          = 2026-02-03T12:49:42.346560
MEAN_MOTION    = 14.15819973
ECCENTRICITY   = .0018478
INCLINATION    = 71.0026
RA_OF_ASC_NODE = 169.6513
ARG_OF_PERICENTER = 237.8630
MEAN_ANOMALY   = 122.0701

EPHEMERIS_TYPE = 0
CLASSIFICATION_TYPE = U
NORAD_CAT_ID   = 26070
ELEMENT_SET_NO = 999
REV_AT_EPOCH   = 34372
BSTAR          = .83654621E-4
MEAN_MOTION_DOT = .117E-5
MEAN_MOTION_DDOT = 0

CCSDS_OMM_VERS = 2.0
CREATION_DATE  = 
ORIGINATOR     = 

OBJECT_NAME    = TITAN 4B R/B
OBJECT_ID      = 2000-047B
CENTER_NAME    = EARTH
REF_FRAME      = TEME
TIME_SYSTEM    = UTC
MEAN_ELEMENT_THEORY = SGP/SGP4

EPOCH          = 2026-02-03T13:41:02.639616
MEAN_MOTION    = 15.09272006
ECCENTRICITY   = .00367792
INCLINATION    = 67.9899
RA_OF_ASC_NODE = 136.4317
ARG_OF_PERICENTER = 77.6936
MEAN_ANOMALY   = 282.8327

EPHEMERIS_TYPE = 0
CLASSIFICATION_TYPE = U
NORAD_CAT_ID   = 26474
ELEMENT_SET_NO = 999
REV_AT_EPOCH   = 38776
BSTAR          = .26901655E-3
MEAN_MOTION_DOT = .4228E-4
MEAN_MOTION_DDOT = 0

CCSDS_OMM_VERS = 2.0
CREATION_DATE  = 
ORIGINATOR     = 

OBJECT_NAME    = ENVISAT
OBJECT_ID      = 2002-009A
CENTER_NAME    = EARTH
REF_FRAME      = TEME
TIME_SYSTEM    = UTC
MEAN_ELEMENT_THEORY = SGP/SGP4

EPOCH          = 2026-02-03T15:11:22.563456
MEAN_MOTION    = 14.39023472
ECCENTRICITY   = .00013
INCLINATION    = 98.3672
RA_OF_ASC_NODE = 349.0538
ARG_OF_PERICENTER = 91.3709
MEAN_ANOMALY   = 82.5982

EPHEMERIS_TYPE = 0
CLASSIFICATION_TYPE = U
NORAD_CAT_ID   = 27386
ELEMENT_SET_NO = 999
REV_AT_EPOCH   = 25427
BSTAR          = .61497479E-4
MEAN_MOTION_DOT = .147E-5
MEAN_MOTION_DDOT = 0

